GSAT0211 (GALILEO 14)   
1 41549U 16030A   20292.08658058 -.00000007  00000-0  00000+0 0  9995
2 41549  56.2025 278.5880 0004976 298.6312  61.2953  1.70474536 27394
GSAT0210 (GALILEO 13)   
1 41550U 16030B   20291.20629847 -.00000004  00000-0  00000+0 0  9991
2 41550  56.2023 278.6140 0004896 274.9450  84.9789  1.70474509 27372
THAICOM 8               
1 41552U 16031A   20291.87780660 -.00000130  00000-0  00000-0 0  9999
2 41552   0.0939  83.8711 0001281 311.4684  26.0614  1.00269455 15970
COSMOS 2516 [GLONASS-M] 
1 41554U 16032A   20291.59947260  .00000013  00000-0  00000-0 0  9991
2 41554  64.0733 262.6116 0014856 224.3157 245.9579  2.13101797 34140
ZIYUAN 3-2 (ZY 3-2)     
1 41556U 16033A   20292.16726339  .00000348  00000-0  18592-4 0  9990
2 41556  97.3549   4.5171 0002423 357.3438  31.9056 15.21273765243576
NUSAT-1 (FRESCO)        
1 41557U 16033B   20292.11180766  .00001159  00000-0  44664-4 0  9994
2 41557  97.4026  21.5469 0014025  20.7406  99.3642 15.28311613244509
NUSAT-2 (BATATA)        
1 41558U 16033C   20292.11312711  .00001343  00000-0  48299-4 0  9995
2 41558  97.4087  24.3213 0012884  17.4196 102.0898 15.30328619244642
COSMOS 2517 (GEO-IK 2)  
1 41579U 16034A   20292.08082739 -.00000013  00000-0  27470-4 0  9991
2 41579  99.2462 303.0272 0001017  55.0973 305.0283 13.85905289221168
INTELSAT 31 (IS-31)     
1 41581U 16035A   20292.21166234 -.00000158  00000-0  00000+0 0  9998
2 41581   0.0186 241.8485 0001251 359.0821 127.3810  1.00264920 15962
BEIDOU-2 G7             
1 41586U 16037A   20291.93312573 -.00000361  00000-0  00000-0 0  9999
2 41586   1.7415  67.4357 0007705 359.8945  46.0152  1.00268067 16058
ABS-2A (MONGOLSAT-1)    
1 41588U 16038A   20291.92842047 -.00000092  00000-0  00000-0 0  9996
2 41588   0.0126 220.8677 0000710 201.5581  13.4261  1.00269348 15960
EUTELSAT 117 WEST B     
1 41589U 16038B   20291.60440558 -.00000019  00000-0  00000-0 0  9992
2 41589   0.0235  64.9089 0000100 151.4029 270.8567  1.00270879 15935
BRISAT                  
1 41591U 16039A   20291.90283187 -.00000204  00000-0  00000-0 0  9998
2 41591   0.0123 273.4602 0002056 284.5172 304.4264  1.00271275 15884
ECHOSTAR 18             
1 41592U 16039B   20292.13664598 -.00000290  00000-0  00000+0 0  9998
2 41592   0.0260 221.5226 0001394 338.6659 174.7267  1.00269990 15891
CARTOSAT-2C             
1 41599U 16040A   20292.20807172  .00000433  00000-0  23744-4 0  9995
2 41599  97.4367 349.9226 0014737 137.1613 296.1004 15.19235153239736
SKYSAT-C1               
1 41601U 16040C   20291.86007104  .00001505  00000-0  42240-4 0  9990
2 41601  97.2160   7.6277 0005134  82.7821 277.4008 15.38098543240526
GHGSAT-D                
1 41602U 16040D   20291.89611041  .00000770  00000-0  35389-4 0  9994
2 41602  97.2963 346.6456 0010545 116.5696 243.6623 15.23214973240115
LAPAN-A3                
1 41603U 16040E   20292.12056652  .00000189  00000-0  11874-4 0  9990
2 41603  97.2950 341.7258 0014687 127.9555 284.3788 15.19884263239773
BIROS                   
1 41604U 16040F   20291.72798229  .00000500  00000-0  24705-4 0  9993
2 41604  97.3004 345.7764 0013864 112.4071 247.8636 15.22156229239975
M3MSAT                  
1 41605U 16040G   20291.91220003  .00000499  00000-0  25146-4 0  9992
2 41605  97.2994 344.6057 0013523 124.1385 236.1136 15.21511013239911
SWAYAM                  
1 41607U 16040J   20291.88563878  .00001634  00000-0  68991-4 0  9997
2 41607  97.3040 348.3001 0014604 112.7044 247.5739 15.24578812240079
FLOCK 2P-9              
1 41610U 16040M   20291.62553910  .00001645  00000-0  65339-4 0  9994
2 41610  97.3133 352.6401 0012073 100.1251 260.1350 15.26675008240186
FLOCK 2P-10             
1 41612U 16040P   20291.91564716  .00002807  00000-0  10917-3 0  9996
2 41612  97.3182 353.8999 0011665 108.4859 251.7649 15.26792221240407
FLOCK 2P-8              
1 41613U 16040Q   20291.91814151  .00002045  00000-0  80544-4 0  9996
2 41613  97.3173 353.6471 0011767 106.7994 253.4537 15.26674282240394
FLOCK 2P-12             
1 41614U 16040R   20291.68169838  .00001837  00000-0  72648-4 0  9990
2 41614  97.3185 353.7161 0011782 109.2193 251.0322 15.26680384240364
FLOCK 2P-3              
1 41618U 16040V   20291.89568030  .00001851  00000-0  73176-4 0  9997
2 41618  97.3193 353.9363 0011536 107.5810 252.6690 15.26677139240399
BEESAT-4                
1 41619U 16040W   20291.80141441  .00001504  00000-0  64253-4 0  9993
2 41619  97.3060 348.3705 0012680 106.3827 253.8806 15.24328016228031
MUOS-5                  
1 41622U 16041A   20292.08781743 -.00000160  00000-0  00000+0 0  9997
2 41622   6.9900 306.2225 0204551 221.5749 145.8479  1.00272570 16333
SJ 16-02                
1 41634U 16043A   20292.10285865  .00000090  00000-0  13467-4 0  9996
2 41634  75.0049 203.3671 0006992 352.8259   7.2820 14.85719986233451
TIANTONG-1 1            
1 41725U 16048A   20292.23759552 -.00000330  00000-0  00000+0 0  9997
2 41725   2.8295 336.7338 0002818 312.9933 284.3833  1.00273266 15520
GAOFEN 3                
1 41727U 16049A   20292.06358542 -.00000323  00000-0 -84976-4 0  9997
2 41727  98.4138 297.9775 0001203  50.9257 309.2075 14.42210288220547
JCSAT-16                
1 41729U 16050A   20291.89088053 -.00000240  00000-0  00000-0 0  9997
2 41729   0.0325 275.3904 0004161 337.4407 185.1317  1.00268979 15324
QSS (MOZI)              
1 41731U 16051A   20292.07093065  .00000337  00000-0  16237-4 0  9990
2 41731  97.3488 202.8432 0011708 298.9036 186.4134 15.25237461232259
USA 270                 
1 41744U 16052A   20282.54702287  .00000137  00000-0  00000+0 0  9993
2 41744   0.8206  95.3635 0005244 308.1775 200.1772  1.00053224  7301
USA 271                 
1 41745U 16052B   20289.52979859 -.00000360  00000-0  00000+0 0  9999
2 41745   0.4611  90.7091 0012816 159.5485  90.3629  1.00267770  7170
INTELSAT 36 (IS-36)     
1 41747U 16053A   20292.03002187 -.00000033  00000-0  00000+0 0  9990
2 41747   0.0141 302.5536 0002804  73.7594  89.9867  1.00271507 15224
INTELSAT 33E (IS-33E)   
1 41748U 16053B   20291.93357285  .00000041  00000-0  00000-0 0  9990
2 41748   0.0144 240.8620 0001750 319.0559 223.0329  1.00269046 15502
INSAT-3DR               
1 41752U 16054A   20291.88756557 -.00000085  00000-0  00000-0 0  9994
2 41752   0.1378  94.0648 0012067 169.5193 156.7931  1.00271015 15062
PERUSAT 1               
1 41770U 16058A   20292.10392627 -.00000009  00000-0  79228-5 0  9997
2 41770  98.1658   3.2022 0001204  79.8517 280.2820 14.58564979217630
SKYSAT-C4               
1 41771U 16058B   20291.80978588  .00001380  00000-0  38978-4 0  9998
2 41771  97.1978 359.6964 0001420 111.7304 248.4092 15.38045488227476
SKYSAT-C5               
1 41772U 16058C   20292.13213000  .00000428  00000-0  20444-4 0  9998
2 41772  97.3459 359.4442 0001611 100.9866 315.4167 15.24115657227229
SKYSAT-C2               
1 41773U 16058D   20291.91671572  .00001387  00000-0  39084-4 0  9991
2 41773  97.1983   0.1208 0001483 102.2334 257.9078 15.38111147227510
SKYSAT-C3               
1 41774U 16058E   20291.73430572  .00001371  00000-0  38665-4 0  9992
2 41774  97.1979 359.9075 0001486 107.8987 252.2421 15.38097405227476
PISAT                   
1 41784U 16059B   20291.87834850  .00000085  00000-0  25387-4 0  9994
2 41784  98.0046 344.9594 0030615 288.2695  71.5177 14.63545221216815
ALSAT 1B                
1 41785U 16059C   20292.14769798 -.00000020  00000-0  53864-5 0  9996
2 41785  97.9990 344.5079 0030033 287.7049  72.0879 14.63371502216844
ALSAT 2B                
1 41786U 16059D   20292.21440924  .00000037  00000-0  15233-4 0  9996
2 41786  98.0496 358.4499 0001646  97.5745 262.5661 14.66603308217331
PATHFINDER 1            
1 41787U 16059E   20292.16231571  .00000048  00000-0  18216-4 0  9993
2 41787  98.0031 345.6984 0029412 285.3412  74.4554 14.63753838216895
CANX-7                  
1 41788U 16059F   20292.14739114  .00007949  00000-0  10501-2 0  9992
2 41788  98.2580  23.2605 0026522 255.2231 104.6094 14.80047986217952
SCATSAT 1               
1 41790U 16059H   20291.96134666 -.00005675  00000-0 -14308-2 0  9990
2 41790  98.4025 328.7181 0004052 256.4435 198.7301 14.50806879214982
GSAT-18                 
1 41793U 16060A   20291.88756557 -.00000085  00000-0  00000-0 0  9996
2 41793   0.1080  95.0922 0001819  57.7439 267.5470  1.00271549 14797
SKY MUSTER 2            
1 41794U 16060B   20291.90169780 -.00000252  00000-0  00000-0 0  9992
2 41794   0.0120 253.0452 0001325 307.4608 295.7756  1.00271063 14781
HIMAWARI-9              
1 41836U 16064A   20291.86144045 -.00000283  00000-0  00000-0 0  9999
2 41836   0.0411  69.9730 0000644 117.0136 290.7252  1.00272375 14455
SHIJIAN-17 (SJ-17)      
1 41838U 16065A   20291.93127959 -.00000370  00000-0  00000-0 0  9992
2 41838   0.5298  93.8900 0003696 298.6358  87.1411  1.00268944 14476
XPNAV-1                 
1 41841U 16066A   20292.05343366  .00000502  00000-0  24386-4 0  9996
2 41841  97.4120 296.2406 0013376 277.4057 168.0872 15.22886384218745
XIAOXIANG 1             
1 41842U 16066B   20292.02220258  .00000760  00000-0  34153-4 0  9997
2 41842  97.4071 297.6706 0012772 276.8931 141.1946 15.24139382218860
PINA 2A                 
1 41843U 16066C   20292.07284388  .00000819  00000-0  35554-4 0  9998
2 41843  97.4097 298.0971 0019941 294.4509 149.9846 15.25052012218882
PINA 2B                 
1 41844U 16066D   20292.07396319  .00000846  00000-0  36675-4 0  9992
2 41844  97.4039 298.8877 0013121 273.4069 171.5255 15.25052962218951
LISHUI 1-01             
1 41845U 16066E   20292.19485505  .00007926  00000-0  10185-2 0  9994
2 41845  98.7381  17.3098 0288723 143.1937 218.9511 14.56294763208101
CAS-2T & KS-1Q          
1 41847U 16066G   20291.87072077  .00000078  00000-0  22679-4 0  9990
2 41847  98.6398 343.5334 0364848 223.9481 133.2157 14.38098924207016
